[{"OBJECT_NAME":"YAOGAN-39 01A","OBJECT_ID":"2023-130A","EPOCH":"2026-03-07T01:49:05.647584","MEAN_MOTION":15.22847308,"ECCENTRICITY":0.00044592,"INCLINATION":35.005,"RA_OF_ASC_NODE":50.8898,"ARG_OF_PERICENTER":284.3505,"MEAN_ANOMALY":75.6714,"EPHEMERIS_TYPE":0,"CLASSIFICATION_TYPE":"U","NORAD_CAT_ID":57727,"ELEMENT_SET_NO":999,"REV_AT_EPOCH":14013,"BSTAR":0.00021092853,"MEAN_MOTION_DOT":5.026e-5,"MEAN_MOTION_DDOT":0},{"OBJECT_NAME":"OBJECT C","OBJECT_ID":"2025-012C","EPOCH":"2026-03-09T23:21:30.920256","MEAN_MOTION":15.25321174,"ECCENTRICITY":0.00067398,"INCLINATION":97.4321,"RA_OF_ASC_NODE":145.036,"ARG_OF_PERICENTER":249.6621,"MEAN_ANOMALY":110.3894,"EPHEMERIS_TYPE":0,"CLASSIFICATION_TYPE":"U","NORAD_CAT_ID":62727,"ELEMENT_SET_NO":999,"REV_AT_EPOCH":6325,"BSTAR":0.0005750193,"MEAN_MOTION_DOT":0.00014438,"MEAN_MOTION_DDOT":0}]
